NORAD_CAT_ID,OBJECT_NAME,OBJECT_TYPE,EPOCH,MEAN_MOTION,ECCENTRICITY,INCLINATION,RA_OF_ASC_NODE,ARG_OF_PERICENTER,MEAN_ANOMALY,BSTAR,MEAN_MOTION_DOT,MEAN_MOTION_DDOT,TLE_LINE0,TLE_LINE1,TLE_LINE2,SEMIMAJOR_AXIS,PERIOD,APOGEE,PERIGEE,DECAYED
53274.0,STARLINK-4050,PAYLOAD,2024-05-23 12:37:54,15.08842034,0.0001201,53.2166,245.2626,100.0561,260.0566,0.000179,2.562e-05,0.0,0 STARLINK-4050,1 53274U 22086AJ  24144.52633093  .00002562  00000-0  17900-3 0  9990,2 53274  53.2166 245.2626 0001201 100.0561 260.0566 15.08842034102115,6917.874,95.437,540.57,538.908,0.0
53274.0,STARLINK-4050,PAYLOAD,2024-05-23 14:13:18,15.08842589,0.0001226,53.2166,244.9642,101.6958,258.4172,0.00019688,2.847e-05,0.0,0 STARLINK-4050,1 53274U 22086AJ  24144.59257086  .00002847  00000-0  19688-3 0  9992,2 53274  53.2166 244.9642 0001226 101.6958 258.4172 15.08842589102303,6917.872,95.437,540.586,538.889,0.0
53274.0,STARLINK-4050,PAYLOAD,2024-05-24 14:04:04,15.08857275,0.0001188,53.2155,240.5026,99.26,260.8526,0.00041118,6.265e-05,0.0,0 STARLINK-4050,1 53274U 22086AJ  24145.58616269  .00006265  00000-0  41118-3 0  9995,2 53274  53.2155 240.5026 0001188  99.2600 260.8526 15.08857275102456,6917.828,95.436,540.514,538.871,0.0
53274.0,STARLINK-4050,PAYLOAD,2024-05-24 15:39:27,15.08860849,0.0001205,53.2156,240.2049,103.5071,256.6055,0.00048098,7.379e-05,0.0,0 STARLINK-4050,1 53274U 22086AJ  24145.65240089  .00007379  00000-0  48098-3 0  9997,2 53274  53.2156 240.2049 0001205 103.5071 256.6055 15.08860849102282,6917.817,95.436,540.515,538.848,0.0
53274.0,STARLINK-4050,PAYLOAD,2024-05-25 12:19:28,15.08829092,0.0001328,53.215,236.3404,103.0759,257.0381,-0.00037011,-6.172e-05,0.0,0 STARLINK-4050,1 53274U 22086AJ  24146.51352686 -.00006172  00000-0 -37011-3 0  9995,2 53274  53.2150 236.3404 0001328 103.0759 257.0381 15.08829092102418,6917.914,95.438,540.697,538.86,0.0
53274.0,STARLINK-4050,PAYLOAD,2024-05-25 23:27:10,15.08834639,0.0001306,53.216,234.2594,98.0772,262.0369,0.00043967,6.715e-05,0.0,0 STARLINK-4050,1 53274U 22086AJ  24146.97720987  .00006715  00000-0  43967-3 0  9996,2 53274  53.2160 234.2594 0001306  98.0772 262.0369 15.08834639102482,6917.897,95.438,540.665,538.858,0.0
53274.0,STARLINK-4050,PAYLOAD,2024-05-26 12:10:16,15.08840442,0.0001424,53.2164,231.881,102.8742,257.241,0.00066114,0.0001025,0.0,0 STARLINK-4050,1 53274U 22086AJ  24147.50713290  .00010250  00000-0  66114-3 0  9993,2 53274  53.2164 231.8810 0001424 102.8742 257.2410 15.08840442102743,6917.879,95.438,540.729,538.759,0.0
53274.0,STARLINK-4050,PAYLOAD,2024-05-27 05:39:30,15.08847982,0.0001391,53.2162,228.6101,98.7569,261.3581,0.00046727,7.158e-05,0.0,0 STARLINK-4050,1 53274U 22086AJ  24148.23577124  .00007158  00000-0  46727-3 0  9999,2 53274  53.2162 228.6101 0001391  98.7569 261.3581 15.08847982102674,6917.856,95.437,540.683,538.759,0.0
53274.0,STARLINK-4050,PAYLOAD,2024-05-27 12:01:03,15.08845314,0.0001346,53.2163,227.4199,101.4921,258.6222,0.00027565,4.102e-05,0.0,0 STARLINK-4050,1 53274U 22086AJ  24148.50073087  .00004102  00000-0  27565-3 0  9993,2 53274  53.2163 227.4199 0001346 101.4921 258.6222 15.08845314102895,6917.864,95.437,540.66,538.798,0.0
53274.0,STARLINK-4050,PAYLOAD,2024-05-28 05:30:17,15.08848275,0.0001319,53.2159,224.1479,97.3826,262.7317,0.00021338,3.11e-05,0.0,0 STARLINK-4050,1 53274U 22086AJ  24149.22936778  .00003110  00000-0  21338-3 0  9998,2 53274  53.2159 224.1479 0001319  97.3826 262.7317 15.08848275102825,6917.855,95.437,540.633,538.808,0.0
53274.0,STARLINK-4050,PAYLOAD,2024-05-28 11:51:49,15.08847232,0.0001252,53.2158,222.958,96.8248,263.2887,0.00013168,1.809e-05,0.0,0 STARLINK-4050,1 53274U 22086AJ  24149.49432650  .00001809  00000-0  13168-3 0  9992,2 53274  53.2158 222.9580 0001252  96.8248 263.2887 15.08847232103046,6917.858,95.437,540.589,538.857,0.0
53274.0,STARLINK-4050,PAYLOAD,2024-05-29 05:21:04,15.0884085,0.0001195,53.2152,219.6876,84.0828,276.03,4.2163e-05,3.83e-06,0.0,0 STARLINK-4050,1 53274U 22086AJ  24150.22296812  .00000383  00000-0  42163-4 0  9997,2 53274  53.2152 219.6876 0001195  84.0828 276.0300 15.08840850102972,6917.878,95.438,540.569,538.916,0.0
53274.0,STARLINK-4050,PAYLOAD,2024-05-29 10:07:14,15.08833674,0.0001276,53.2163,218.7952,113.469,246.6436,2.5995e-05,1.26e-06,0.0,0 STARLINK-4050,1 53274U 22086AJ  24150.42169476  .00000126  00000-0  25995-4 0  9993,2 53274  53.2163 218.7952 0001276 113.4690 246.6436 15.08833674103007,6917.9,95.438,540.647,538.882,0.0
53274.0,STARLINK-4050,PAYLOAD,2024-05-30 13:08:46,15.08847793,0.0001169,53.2155,213.7398,104.0671,256.0451,0.00011803,1.591e-05,0.0,0 STARLINK-4050,1 53274U 22086AJ  24151.54776504  .00001591  00000-0  11803-3 0  9992,2 53274  53.2155 213.7398 0001169 104.0671 256.0451 15.08847793103170,6917.857,95.437,540.53,538.913,0.0
53274.0,STARLINK-4050,PAYLOAD,2024-05-31 12:59:34,15.08841811,0.0001225,53.2165,209.2795,98.582,261.5311,0.00017814,2.549e-05,0.0,0 STARLINK-4050,1 53274U 22086AJ  24152.54136842  .00002549  00000-0  17814-3 0  9990,2 53274  53.2165 209.2795 0001225  98.5820 261.5311 15.08841811103326,6917.875,95.437,540.587,538.892,0.0
53274.0,STARLINK-4050,PAYLOAD,2024-05-31 20:56:29,15.08845443,0.0001343,53.2167,207.7952,85.8028,274.3117,0.00015249,2.14e-05,0.0,0 STARLINK-4050,1 53274U 22086AJ  24152.87256697  .00002140  00000-0  15249-3 0  9994,2 53274  53.2167 207.7952 0001343  85.8028 274.3117 15.08845443103552,6917.864,95.437,540.658,538.8,0.0
53274.0,STARLINK-4050,PAYLOAD,2024-06-01 11:14:58,15.08840069,0.0001381,53.2157,205.1194,77.7564,282.3583,1.4294e-05,-6e-07,0.0,0 STARLINK-4050,1 53274U 22086AJ  24153.46873029 -.00000060  00000-0  14294-4 0  9994,2 53274  53.2157 205.1194 0001381  77.7564 282.3583 15.08840069103463,6917.88,95.438,540.701,538.79,0.0
53274.0,STARLINK-4050,PAYLOAD,2024-06-02 09:30:22,15.08838998,0.0001406,53.2154,200.9565,84.0189,276.0963,0.00013334,1.835e-05,0.0,0 STARLINK-4050,1 53274U 22086AJ  24154.39609234  .00001835  00000-0  13334-3 0  9995,2 53274  53.2154 200.9565 0001406  84.0189 276.0963 15.08838998103782,6917.883,95.438,540.721,538.776,0.0
53274.0,STARLINK-4050,PAYLOAD,2024-06-02 20:38:04,15.08845829,0.0001369,53.2159,198.8753,83.2053,276.9095,0.00015865,2.238e-05,0.0,0 STARLINK-4050,1 53274U 22086AJ  24154.85976951  .00002238  00000-0  15865-3 0  9998,2 53274  53.2159 198.8753 0001369  83.2053 276.9095 15.08845829103674,6917.863,95.437,540.675,538.781,0.0
53274.0,STARLINK-4050,PAYLOAD,2024-06-03 02:59:37,15.08837639,0.0001513,53.2169,197.6845,94.6737,265.4428,0.00033072,4.979e-05,0.0,0 STARLINK-4050,1 53274U 22086AJ  24155.12473516  .00004979  00000-0  33072-3 0  9992,2 53274  53.2169 197.6845 0001513  94.6737 265.4428 15.08837639103718,6917.888,95.438,540.799,538.706,0.0
53274.0,STARLINK-4050,PAYLOAD,2024-06-03 09:21:09,15.08839139,0.0001509,53.2166,196.495,94.7579,265.3585,0.00028015,4.173e-05,0.0,0 STARLINK-4050,1 53274U 22086AJ  24155.38969477  .00004173  00000-0  28015-3 0  9993,2 53274  53.2166 196.4950 0001509  94.7579 265.3585 15.08839139103933,6917.883,95.438,540.792,538.704,0.0
53274.0,STARLINK-4050,PAYLOAD,2024-06-04 09:11:56,15.08838976,0.0001471,53.2162,192.0346,94.9766,265.1394,6.9245e-05,8.14e-06,0.0,0 STARLINK-4050,1 53274U 22086AJ  24156.38329439  .00000814  00000-0  69245-4 0  9991,2 53274  53.2162 192.0346 0001471  94.9766 265.1394 15.08838976103909,6917.884,95.438,540.766,538.731,0.0
53274.0,STARLINK-4050,PAYLOAD,2024-06-05 07:27:20,15.08839738,0.0001346,53.216,187.8711,95.2077,264.9069,8.9293e-05,1.133e-05,0.0,0 STARLINK-4050,1 53274U 22086AJ  24157.31065369  .00001133  00000-0  89293-4 0  9994,2 53274  53.2160 187.8711 0001346  95.2077 264.9069 15.08839738104224,6917.881,95.438,540.677,538.815,0.0
53274.0,STARLINK-4050,PAYLOAD,2024-06-05 18:35:02,15.08845574,0.0001286,53.2158,185.7886,92.9714,267.1425,0.00012383,1.684e-05,0.0,0 STARLINK-4050,1 53274U 22086AJ  24157.77432888  .00001684  00000-0  12383-3 0  9994,2 53274  53.2158 185.7886 0001286  92.9714 267.1425 15.08845574104110,6917.863,95.437,540.618,538.839,0.0
53274.0,STARLINK-4050,PAYLOAD,2024-06-06 05:42:44,15.08832233,0.000153,53.2171,183.7136,107.4452,252.6707,0.00010496,1.383e-05,0.0,0 STARLINK-4050,1 53274U 22086AJ  24158.23801968  .00001383  00000-0  10496-3 0  9994,2 53274  53.2171 183.7136 0001530 107.4452 252.6707 15.08832233104181,6917.904,95.438,540.828,538.711,0.0
53274.0,STARLINK-4050,PAYLOAD,2024-06-06 08:53:31,15.08829701,0.0001492,53.2176,183.1172,101.3807,258.7353,5.7931e-05,6.34e-06,0.0,0 STARLINK-4050,1 53274U 22086AJ  24158.37050238  .00000634  00000-0  57931-4 0  9999,2 53274  53.2176 183.1172 0001492 101.3807 258.7353 15.08829701104386,6917.912,95.438,540.809,538.745,0.0
53274.0,STARLINK-4050,PAYLOAD,2024-06-07 08:44:18,15.08839496,0.0001453,53.2163,178.6535,103.8233,256.2921,9.0117e-05,1.147e-05,0.0,0 STARLINK-4050,1 53274U 22086AJ  24159.36409843  .00001147  00000-0  90117-4 0  9992,2 53274  53.2163 178.6535 0001453 103.8233 256.2921 15.08839496104354,6917.882,95.438,540.752,538.742,0.0
53274.0,STARLINK-4050,PAYLOAD,2024-06-08 08:35:04,15.08845939,0.0001391,53.215,174.1927,83.3789,276.7362,0.00019086,2.751e-05,0.0,0 STARLINK-4050,1 53274U 22086AJ  24160.35769467  .00002751  00000-0  19086-3 0  9991,2 53274  53.2150 174.1927 0001391  83.3789 276.7362 15.08845939104686,6917.862,95.437,540.69,538.765,0.0
53274.0,STARLINK-4050,PAYLOAD,2024-06-08 18:07:23,15.08847445,0.0001393,53.2152,172.4091,86.7526,273.3625,0.00018174,2.606e-05,0.0,0 STARLINK-4050,1 53274U 22086AJ  24160.75513304  .00002606  00000-0  18174-3 0  9998,2 53274  53.2152 172.4091 0001393  86.7526 273.3625 15.08847445104565,6917.858,95.437,540.686,538.759,0.0
53274.0,STARLINK-4050,PAYLOAD,2024-06-09 05:15:06,15.08835196,0.0001503,53.2158,170.3271,89.733,270.3834,-1.0288e-05,-4.52e-06,0.0,0 STARLINK-4050,1 53274U 22086AJ  24161.21882014 -.00000452  00000-0 -10288-4 0  9995,2 53274  53.2158 170.3271 0001503  89.7330 270.3834 15.08835196104634,6917.895,95.438,540.8,538.72,0.0
